[{"OBJECT_NAME":"NORSAT 3","OBJECT_ID":"2021-034E","EPOCH":"2026-03-09T22:23:32.431200","MEAN_MOTION":15.04338407,"ECCENTRICITY":0.0005858,"INCLINATION":97.5427,"RA_OF_ASC_NODE":128.5959,"ARG_OF_PERICENTER":280.8366,"MEAN_ANOMALY":79.2201,"EPHEMERIS_TYPE":0,"CLASSIFICATION_TYPE":"U","NORAD_CAT_ID":48272,"ELEMENT_SET_NO":999,"REV_AT_EPOCH":26491,"BSTAR":0.00030361478,"MEAN_MOTION_DOT":4.174e-5,"MEAN_MOTION_DDOT":0},{"OBJECT_NAME":"STARLINK-35039","OBJECT_ID":"2025-194T","EPOCH":"2026-03-09T12:40:07.448736","MEAN_MOTION":15.05635311,"ECCENTRICITY":0.00030853,"INCLINATION":97.6025,"RA_OF_ASC_NODE":284.239,"ARG_OF_PERICENTER":77.2772,"MEAN_ANOMALY":282.88,"EPHEMERIS_TYPE":0,"CLASSIFICATION_TYPE":"U","NORAD_CAT_ID":65451,"ELEMENT_SET_NO":999,"REV_AT_EPOCH":2962,"BSTAR":0.00094098596,"MEAN_MOTION_DOT":0.00013538,"MEAN_MOTION_DDOT":0}]
